CCSDS_OMM_VERS = 2.0
CREATION_DATE  = 
ORIGINATOR     = 

OBJECT_NAME    = ERS-1
OBJECT_ID      = 1991-050A
CENTER_NAME    = EARTH
REF_FRAME      = TEME
TIME_SYSTEM    = UTC
MEAN_ELEMENT_THEORY = SGP/SGP4

EPOCH          = 2026-03-07T01:20:30.736320
MEAN_MOTION    = 14.39446623
ECCENTRICITY   = .0031489
INCLINATION    = 98.7885
RA_OF_ASC_NODE = 84.2243
ARG_OF_PERICENTER = 208.3998
MEAN_ANOMALY   = 151.5474

EPHEMERIS_TYPE = 0
CLASSIFICATION_TYPE = U
NORAD_CAT_ID   = 21574
ELEMENT_SET_NO = 999
REV_AT_EPOCH   = 81535
BSTAR          = .13107E-3
MEAN_MOTION_DOT = .364E-5
MEAN_MOTION_DDOT = 0

CCSDS_OMM_VERS = 2.0
CREATION_DATE  = 
ORIGINATOR     = 

OBJECT_NAME    = ARIANE 40 R/B
OBJECT_ID      = 1991-050F
CENTER_NAME    = EARTH
REF_FRAME      = TEME
TIME_SYSTEM    = UTC
MEAN_ELEMENT_THEORY = SGP/SGP4

EPOCH          = 2026-03-07T02:42:54.385344
MEAN_MOTION    = 14.42891127
ECCENTRICITY   = .0004364
INCLINATION    = 98.2017
RA_OF_ASC_NODE = 118.4461
ARG_OF_PERICENTER = 86.8504
MEAN_ANOMALY   = 273.3186

EPHEMERIS_TYPE = 0
CLASSIFICATION_TYPE = U
NORAD_CAT_ID   = 21610
ELEMENT_SET_NO = 999
REV_AT_EPOCH   = 81862
BSTAR          = .11548E-3
MEAN_MOTION_DOT = .344E-5
MEAN_MOTION_DDOT = 0

CCSDS_OMM_VERS = 2.0
CREATION_DATE  = 
ORIGINATOR     = 

OBJECT_NAME    = INTERCOSMOS 25
OBJECT_ID      = 1991-086A
CENTER_NAME    = EARTH
REF_FRAME      = TEME
TIME_SYSTEM    = UTC
MEAN_ELEMENT_THEORY = SGP/SGP4

EPOCH          = 2026-03-07T02:21:54.549792
MEAN_MOTION    = 12.11990071
ECCENTRICITY   = .1487003
INCLINATION    = 82.6051
RA_OF_ASC_NODE = 311.5748
ARG_OF_PERICENTER = 122.5126
MEAN_ANOMALY   = 252.8473

EPHEMERIS_TYPE = 0
CLASSIFICATION_TYPE = U
NORAD_CAT_ID   = 21819
ELEMENT_SET_NO = 999
REV_AT_EPOCH   = 49637
BSTAR          = .23973E-3
MEAN_MOTION_DOT = .1259E-4
MEAN_MOTION_DDOT = 0

CCSDS_OMM_VERS = 2.0
CREATION_DATE  = 
ORIGINATOR     = 

OBJECT_NAME    = SL-8 R/B
OBJECT_ID      = 1992-008B
CENTER_NAME    = EARTH
REF_FRAME      = TEME
TIME_SYSTEM    = UTC
MEAN_ELEMENT_THEORY = SGP/SGP4

EPOCH          = 2026-03-07T02:47:41.335296
MEAN_MOTION    = 13.75969777
ECCENTRICITY   = .0035417
INCLINATION    = 82.9225
RA_OF_ASC_NODE = 269.6930
ARG_OF_PERICENTER = 140.3338
MEAN_ANOMALY   = 342.4565

EPHEMERIS_TYPE = 0
CLASSIFICATION_TYPE = U
NORAD_CAT_ID   = 21876
ELEMENT_SET_NO = 999
REV_AT_EPOCH   = 70906
BSTAR          = -.70725E-5
MEAN_MOTION_DOT = .9E-7
MEAN_MOTION_DDOT = 0

CCSDS_OMM_VERS = 2.0
CREATION_DATE  = 
ORIGINATOR     = 

OBJECT_NAME    = SL-8 R/B
OBJECT_ID      = 1992-020B
CENTER_NAME    = EARTH
REF_FRAME      = TEME
TIME_SYSTEM    = UTC
MEAN_ELEMENT_THEORY = SGP/SGP4

EPOCH          = 2026-03-07T05:05:57.425280
MEAN_MOTION    = 13.75549193
ECCENTRICITY   = .0027761
INCLINATION    = 82.9340
RA_OF_ASC_NODE = 155.6005
ARG_OF_PERICENTER = 306.0064
MEAN_ANOMALY   = 82.3601

EPHEMERIS_TYPE = 0
CLASSIFICATION_TYPE = U
NORAD_CAT_ID   = 21938
ELEMENT_SET_NO = 999
REV_AT_EPOCH   = 70079
BSTAR          = .86259E-4
MEAN_MOTION_DOT = .98E-6
MEAN_MOTION_DDOT = 0

CCSDS_OMM_VERS = 2.0
CREATION_DATE  = 
ORIGINATOR     = 

OBJECT_NAME    = USA 81
OBJECT_ID      = 1992-023A
CENTER_NAME    = EARTH
REF_FRAME      = TEME
TIME_SYSTEM    = UTC
MEAN_ELEMENT_THEORY = SGP/SGP4

EPOCH          = 2026-03-07T03:27:15.318720
MEAN_MOTION    = 14.32366888
ECCENTRICITY   = .000254
INCLINATION    = 85.0089
RA_OF_ASC_NODE = 132.9098
ARG_OF_PERICENTER = 79.6355
MEAN_ANOMALY   = 280.5124

EPHEMERIS_TYPE = 0
CLASSIFICATION_TYPE = U
NORAD_CAT_ID   = 21949
ELEMENT_SET_NO = 999
REV_AT_EPOCH   = 9442
BSTAR          = .67579E-4
MEAN_MOTION_DOT = .202E-5
MEAN_MOTION_DDOT = 0

CCSDS_OMM_VERS = 2.0
CREATION_DATE  = 
ORIGINATOR     = 

OBJECT_NAME    = COSMOS 2219
OBJECT_ID      = 1992-076A
CENTER_NAME    = EARTH
REF_FRAME      = TEME
TIME_SYSTEM    = UTC
MEAN_ELEMENT_THEORY = SGP/SGP4

EPOCH          = 2026-03-07T04:28:46.145280
MEAN_MOTION    = 14.14091574
ECCENTRICITY   = .0019174
INCLINATION    = 71.0629
RA_OF_ASC_NODE = 23.2993
ARG_OF_PERICENTER = 210.4033
MEAN_ANOMALY   = 149.5980

EPHEMERIS_TYPE = 0
CLASSIFICATION_TYPE = U
NORAD_CAT_ID   = 22219
ELEMENT_SET_NO = 999
REV_AT_EPOCH   = 71802
BSTAR          = .1379E-3
MEAN_MOTION_DOT = .216E-5
MEAN_MOTION_DDOT = 0

CCSDS_OMM_VERS = 2.0
CREATION_DATE  = 
ORIGINATOR     = 

OBJECT_NAME    = SL-16 R/B
OBJECT_ID      = 1992-076B
CENTER_NAME    = EARTH
REF_FRAME      = TEME
TIME_SYSTEM    = UTC
MEAN_ELEMENT_THEORY = SGP/SGP4

EPOCH          = 2026-03-07T02:32:52.807200
MEAN_MOTION    = 14.16860139
ECCENTRICITY   = .0010493
INCLINATION    = 71.0004
RA_OF_ASC_NODE = 193.8150
ARG_OF_PERICENTER = 101.1356
MEAN_ANOMALY   = 71.0744

EPHEMERIS_TYPE = 0
CLASSIFICATION_TYPE = U
NORAD_CAT_ID   = 22220
ELEMENT_SET_NO = 999
REV_AT_EPOCH   = 72146
BSTAR          = -.32936E-4
MEAN_MOTION_DOT = -.114E-5
MEAN_MOTION_DDOT = 0

CCSDS_OMM_VERS = 2.0
CREATION_DATE  = 
ORIGINATOR     = 

OBJECT_NAME    = COSMOS 2221
OBJECT_ID      = 1992-080A
CENTER_NAME    = EARTH
REF_FRAME      = TEME
TIME_SYSTEM    = UTC
MEAN_ELEMENT_THEORY = SGP/SGP4

EPOCH          = 2026-03-07T02:18:14.427648
MEAN_MOTION    = 14.96188108
ECCENTRICITY   = .0013807
INCLINATION    = 82.5010
RA_OF_ASC_NODE = 281.5661
ARG_OF_PERICENTER = 196.0732
MEAN_ANOMALY   = 164.0054

EPHEMERIS_TYPE = 0
CLASSIFICATION_TYPE = U
NORAD_CAT_ID   = 22236
ELEMENT_SET_NO = 999
REV_AT_EPOCH   = 78040
BSTAR          = .16198E-3
MEAN_MOTION_DOT = .1854E-4
MEAN_MOTION_DDOT = 0

CCSDS_OMM_VERS = 2.0
CREATION_DATE  = 
ORIGINATOR     = 

OBJECT_NAME    = SL-16 R/B
OBJECT_ID      = 1992-093B
CENTER_NAME    = EARTH
REF_FRAME      = TEME
TIME_SYSTEM    = UTC
MEAN_ELEMENT_THEORY = SGP/SGP4

EPOCH          = 2026-03-07T02:59:34.398816
MEAN_MOTION    = 14.15448614
ECCENTRICITY   = .0006377
INCLINATION    = 71.0241
RA_OF_ASC_NODE = 9.6497
ARG_OF_PERICENTER = 296.3435
MEAN_ANOMALY   = 63.7032

EPHEMERIS_TYPE = 0
CLASSIFICATION_TYPE = U
NORAD_CAT_ID   = 22285
ELEMENT_SET_NO = 999
REV_AT_EPOCH   = 71279
BSTAR          = -.83903E-4
MEAN_MOTION_DOT = -.211E-5
MEAN_MOTION_DDOT = 0

CCSDS_OMM_VERS = 2.0
CREATION_DATE  = 
ORIGINATOR     = 

OBJECT_NAME    = COSMOS 2228
OBJECT_ID      = 1992-094A
CENTER_NAME    = EARTH
REF_FRAME      = TEME
TIME_SYSTEM    = UTC
MEAN_ELEMENT_THEORY = SGP/SGP4

EPOCH          = 2026-03-07T02:44:16.593216
MEAN_MOTION    = 14.97174320
ECCENTRICITY   = .0016972
INCLINATION    = 82.5150
RA_OF_ASC_NODE = 239.7768
ARG_OF_PERICENTER = 313.8757
MEAN_ANOMALY   = 46.1063

EPHEMERIS_TYPE = 0
CLASSIFICATION_TYPE = U
NORAD_CAT_ID   = 22286
ELEMENT_SET_NO = 999
REV_AT_EPOCH   = 77567
BSTAR          = .22604E-3
MEAN_MOTION_DOT = .2644E-4
MEAN_MOTION_DDOT = 0

CCSDS_OMM_VERS = 2.0
CREATION_DATE  = 
ORIGINATOR     = 

OBJECT_NAME    = SL-16 R/B
OBJECT_ID      = 1993-016B
CENTER_NAME    = EARTH
REF_FRAME      = TEME
TIME_SYSTEM    = UTC
MEAN_ELEMENT_THEORY = SGP/SGP4

EPOCH          = 2026-03-07T03:57:25.624224
MEAN_MOTION    = 14.15307545
ECCENTRICITY   = .0011611
INCLINATION    = 71.0066
RA_OF_ASC_NODE = 220.4835
ARG_OF_PERICENTER = 317.8429
MEAN_ANOMALY   = 42.1800

EPHEMERIS_TYPE = 0
CLASSIFICATION_TYPE = U
NORAD_CAT_ID   = 22566
ELEMENT_SET_NO = 999
REV_AT_EPOCH   = 70181
BSTAR          = .13648E-3
MEAN_MOTION_DOT = .218E-5
MEAN_MOTION_DDOT = 0

