ERS-1                   
1 21574U 91050A   26066.05591130  .00000364  00000+0  13107-3 0  9995
2 21574  98.7885  84.2243 0031489 208.3998 151.5474 14.39446623815354
ARIANE 40 R/B           
1 21610U 91050F   26066.11312946  .00000344  00000+0  11548-3 0  9994
2 21610  98.2017 118.4461 0004364  86.8504 273.3186 14.42891127818626
INTERCOSMOS 25          
1 21819U 91086A   26066.09854803  .00001259  00000+0  23973-3 0  9995
2 21819  82.6051 311.5748 1487003 122.5126 252.8473 12.11990071496377
SL-8 R/B                
1 21876U 92008B   26066.11645064  .00000009  00000+0 -70725-5 0  9995
2 21876  82.9225 269.6930 0035417 140.3338 342.4565 13.75969777709063
SL-8 R/B                
1 21938U 92020B   26066.21247020  .00000098  00000+0  86259-4 0  9994
2 21938  82.9340 155.6005 0027761 306.0064  82.3601 13.75549193700795
USA 81                  
1 21949U 92023A   26066.14392730  .00000202  00000+0  67579-4 0  9991
2 21949  85.0089 132.9098 0002540  79.6355 280.5124 14.32366888 94425
COSMOS 2219             
1 22219U 92076A   26066.18664520  .00000216  00000+0  13790-3 0  9993
2 22219  71.0629  23.2993 0019174 210.4033 149.5980 14.14091574718026
SL-16 R/B               
1 22220U 92076B   26066.10616675 -.00000114  00000+0 -32936-4 0  9998
2 22220  71.0004 193.8150 0010493 101.1356  71.0744 14.16860139721465
COSMOS 2221             
1 22236U 92080A   26066.09600032  .00001854  00000+0  16198-3 0  9999
2 22236  82.5010 281.5661 0013807 196.0732 164.0054 14.96188108780404
SL-16 R/B               
1 22285U 92093B   26066.12470369 -.00000211  00000+0 -83903-4 0  9996
2 22285  71.0241   9.6497 0006377 296.3435  63.7032 14.15448614712791
COSMOS 2228             
1 22286U 92094A   26066.11408094  .00002644  00000+0  22604-3 0  9993
2 22286  82.5150 239.7768 0016972 313.8757  46.1063 14.97174320775674
SL-16 R/B               
1 22566U 93016B   26066.16487991  .00000218  00000+0  13648-3 0  9990
2 22566  71.0066 220.4835 0011611 317.8429  42.1800 14.15307545701818
